[
    {
        "Altitude(m)": 617719.7242503025,
        "Argument of Periapsis(deg)": 0.0,
        "Eccentricity": 0.0,
        "Inclination(deg)": 60.0,
        "Latitude(deg)": -41.10251369897581,
        "Longitude(deg)": 130.09458143804653,
        "Mean Anomaly(deg)": 229.09090000000003,
        "RAAN(deg)": 20.0,
        "Satellite Name": "Test1 102",
        "Satellite Number": 102,
        "Semi-Major Axis(m)": 6980739.136638005,
        "Time(s)": 0
    },
    {
        "Altitude(m)": 617911.2603053554,
        "Argument of Periapsis(deg)": 0.00010418945913296404,
        "Eccentricity": 0.0,
        "Inclination(deg)": 60.0,
        "Latitude(deg)": -41.56570635835228,
        "Longitude(deg)": 130.5989859311709,
        "Mean Anomaly(deg)": 229.71100614546188,
        "RAAN(deg)": 19.99957995086026,
        "Satellite Name": "Test1 102",
        "Satellite Number": 102,
        "Semi-Major Axis(m)": 6980739.136638005,
        "Time(s)": 10
    }
]